{"type": "FeatureCollection", "features": [ {"type": "Feature", "properties": {"norad_id": 35038, "name": "COSMOS 2251 DEB", "group": "cosmos-2251-debris", "lat": 15.466072526355424, "lon": 50.75872628174391, "alt_km": 729.2131467803265, "timestamp": "2025-12-10T16:57:12.034800+00:00", "meta": {"OBJECT_NAME": "COSMOS 2251 DEB", "OBJECT_ID": "1993-036AHB", "EPOCH": "2025-12-09T21:12:51.178752", "MEAN_MOTION": 14.25117767, "ECCENTRICITY": 0.01138214, "INCLINATION": 74.1071, "RA_OF_ASC_NODE": 47.7141, "ARG_OF_PERICENTER": 32.4196, "MEAN_ANOMALY": 86.2003, "EPHEMERIS_TYPE": 0, "CLASSIFICATION_TYPE": "U", "NORAD_CAT_ID": 35038, "ELEMENT_SET_NO": 999, "REV_AT_EPOCH": 85528, "BSTAR": 0.0019860831, "MEAN_MOTION_DOT": 4.964e-05, "MEAN_MOTION_DDOT": 0}, "tle": {"line1": "1 35038U 93036AHB 25343.88392568  .00004964  00000+0  19861-2 0  9995", "line2": "2 35038  74.1071  47.7141 0113821  32.4196  86.2003 14.25117767855284"}}, "geometry": {"type": "Point", "coordinates": [50.75872628174391, 15.466072526355424]}}, {"type": "Feature", "properties": {"norad_id": 35043, "name": "COSMOS 2251 DEB", "group": "cosmos-2251-debris", "lat": -16.151742647084003, "lon": -125.63451645279146, "alt_km": 612.1401188314094, "timestamp": "2025-12-10T16:57:12.034809+00:00", "meta": {"OBJECT_NAME": "COSMOS 2251 DEB", "OBJECT_ID": "1993-036AHG", "EPOCH": "2025-12-10T11:10:42.887424", "MEAN_MOTION": 14.76758408, "ECCENTRICITY": 0.009686, "INCLINATION": 73.9504, "RA_OF_ASC_NODE": 50.0569, "ARG_OF_PERICENTER": 259.781, "MEAN_ANOMALY": 99.243, "EPHEMERIS_TYPE": 0, "CLASSIFICATION_TYPE": "U", "NORAD_CAT_ID": 35043, "ELEMENT_SET_NO": 999, "REV_AT_EPOCH": 67385, "BSTAR": 0.0060387, "MEAN_MOTION_DOT": 0.00045991, "MEAN_MOTION_DDOT": 0}, "tle": {"line1": "1 35043U 93036AHG 25344.46577416  .00045991  00000+0  60387-2 0  9997", "line2": "2 35043  73.9504  50.0569 0096860 259.7810  99.2430 14.76758408673857"}}, "geometry": {"type": "Point", "coordinates": [-125.63451645279146, -16.151742647084003]}}, {"type": "Feature", "properties": {"norad_id": 35045, "name": "COSMOS 2251 DEB", "group": "cosmos-2251-debris", "lat": -39.59769687540833, "lon": -109.71357500602178, "alt_km": 866.3532979158399, "timestamp": "2025-12-10T16:57:12.034819+00:00", "meta": {"OBJECT_NAME": "COSMOS 2251 DEB", "OBJECT_ID": "1993-036AHJ", "EPOCH": "2025-12-06T22:43:41.331360", "MEAN_MOTION": 14.0036659, "ECCENTRICITY": 0.0183364, "INCLINATION": 73.7196, "RA_OF_ASC_NODE": 62.9336, "ARG_OF_PERICENTER": 305.7539, "MEAN_ANOMALY": 52.6659, "EPHEMERIS_TYPE": 0, "CLASSIFICATION_TYPE": "U", "NORAD_CAT_ID": 35045, "ELEMENT_SET_NO": 999, "REV_AT_EPOCH": 84562, "BSTAR": 0.0010227315, "MEAN_MOTION_DOT": 1.724e-05, "MEAN_MOTION_DDOT": 0}, "tle": {"line1": "1 35045U 93036AHJ 25340.94700615  .00001724  00000+0  10227-2 0  9991", "line2": "2 35045  73.7196  62.9336 0183364 305.7539  52.6659 14.00366590845620"}}, "geometry": {"type": "Point", "coordinates": [-109.71357500602178, -39.59769687540833]}}, {"type": "Feature", "properties": {"norad_id": 35060, "name": "COSMOS 2251 DEB", "group": "cosmos-2251-debris", "lat": -8.548289624992842, "lon": 70.56786471999047, "alt_km": 767.3473090137559, "timestamp": "2025-12-10T16:57:12.034829+00:00", "meta": {"OBJECT_NAME": "COSMOS 2251 DEB", "OBJECT_ID": "1993-036AHP", "EPOCH": "2025-11-28T02:37:07.839264", "MEAN_MOTION": 14.41547968, "ECCENTRICITY": 0.00179641, "INCLINATION": 74.0363, "RA_OF_ASC_NODE": 271.4275, "ARG_OF_PERICENTER": 359.5881, "MEAN_ANOMALY": 0.5257, "EPHEMERIS_TYPE": 0, "CLASSIFICATION_TYPE": "U", "NORAD_CAT_ID": 35060, "ELEMENT_SET_NO": 999, "REV_AT_EPOCH": 87031, "BSTAR": 0.0004076845, "MEAN_MOTION_DOT": 1.301e-05, "MEAN_MOTION_DDOT": 0}, "tle": {"line1": "1 35060U 93036AHP 25332.10911851  .00001301  00000+0  40768-3 0  9998", "line2": "2 35060  74.0363 271.4275 0017964 359.5881   0.5257 14.41547968870310"}}, "geometry": {"type": "Point", "coordinates": [70.56786471999047, -8.548289624992842]}}, {"type": "Feature", "properties": {"norad_id": 35061, "name": "COSMOS 2251 DEB", "group": "cosmos-2251-debris", "lat": -57.8032778211279, "lon": 156.67146815845166, "alt_km": 702.3614587091242, "timestamp": "2025-12-10T16:57:12.034839+00:00", "meta": {"OBJECT_NAME": "COSMOS 2251 DEB", "OBJECT_ID": "1993-036AHQ", "EPOCH": "2025-12-10T04:24:26.439840", "MEAN_MOTION": 14.67788932, "ECCENTRICITY": 0.00390241, "INCLINATION": 74.0462, "RA_OF_ASC_NODE": 310.6593, "ARG_OF_PERICENTER": 62.2963, "MEAN_ANOMALY": 298.2158, "EPHEMERIS_TYPE": 0, "CLASSIFICATION_TYPE": "U", "NORAD_CAT_ID": 35061, "ELEMENT_SET_NO": 999, "REV_AT_EPOCH": 88537, "BSTAR": 0.0011530424, "MEAN_MOTION_DOT": 6.628e-05, "MEAN_MOTION_DDOT": 0}, "tle": {"line1": "1 35061U 93036AHQ 25344.18363935  .00006628  00000+0  11530-2 0  9995", "line2": "2 35061  74.0462 310.6593 0039024  62.2963 298.2158 14.67788932885374"}}, "geometry": {"type": "Point", "coordinates": [156.67146815845166, -57.8032778211279]}}, {"type": "Feature", "properties": {"norad_id": 35062, "name": "COSMOS 2251 DEB", "group": "cosmos-2251-debris", "lat": -73.71179203058348, "lon": -5.455712400180533, "alt_km": 912.8487765362788, "timestamp": "2025-12-10T16:57:12.034849+00:00", "meta": {"OBJECT_NAME": "COSMOS 2251 DEB", "OBJECT_ID": "1993-036AHR", "EPOCH": "2025-12-09T14:24:07.379424", "MEAN_MOTION": 14.22893072, "ECCENTRICITY": 0.012786, "INCLINATION": 74.0789, "RA_OF_ASC_NODE": 98.8746, "ARG_OF_PERICENTER": 99.4973, "MEAN_ANOMALY": 262.0651, "EPHEMERIS_TYPE": 0, "CLASSIFICATION_TYPE": "U", "NORAD_CAT_ID": 35062, "ELEMENT_SET_NO": 999, "REV_AT_EPOCH": 85454, "BSTAR": 0.0026817, "MEAN_MOTION_DOT": 6.536e-05, "MEAN_MOTION_DDOT": 0}, "tle": {"line1": "1 35062U 93036AHR 25343.60008541  .00006536  00000+0  26817-2 0  9993", "line2": "2 35062  74.0789  98.8746 0127860  99.4973 262.0651 14.22893072854546"}}, "geometry": {"type": "Point", "coordinates": [-5.455712400180533, -73.71179203058348]}}, {"type": "Feature", "properties": {"norad_id": 35065, "name": "COSMOS 2251 DEB", "group": "cosmos-2251-debris", "lat": 31.835521082307086, "lon": 7.884558301127869, "alt_km": 751.5043104544311, "timestamp": "2025-12-10T16:57:12.034859+00:00", "meta": {"OBJECT_NAME": "COSMOS 2251 DEB", "OBJECT_ID": "1993-036AHU", "EPOCH": "2025-12-08T21:05:49.871616", "MEAN_MOTION": 14.4570853, "ECCENTRICITY": 0.0019714, "INCLINATION": 74.0196, "RA_OF_ASC_NODE": 201.5431, "ARG_OF_PERICENTER": 327.1177, "MEAN_ANOMALY": 32.8753, "EPHEMERIS_TYPE": 0, "CLASSIFICATION_TYPE": "U", "NORAD_CAT_ID": 35065, "ELEMENT_SET_NO": 999, "REV_AT_EPOCH": 68295, "BSTAR": 0.00050947, "MEAN_MOTION_DOT": 1.782e-05, "MEAN_MOTION_DDOT": 0}, "tle": {"line1": "1 35065U 93036AHU 25342.87904944  .00001782  00000+0  50947-3 0  9996", "line2": "2 35065  74.0196 201.5431 0019714 327.1177  32.8753 14.45708530682959"}}, "geometry": {"type": "Point", "coordinates": [7.884558301127869, 31.835521082307086]}}, {"type": "Feature", "properties": {"norad_id": 35071, "name": "COSMOS 2251 DEB", "group": "cosmos-2251-debris", "lat": -52.98358375523769, "lon": 155.1457633180231, "alt_km": 593.9376859216109, "timestamp": "2025-12-10T16:57:12.034869+00:00", "meta": {"OBJECT_NAME": "COSMOS 2251 DEB", "OBJECT_ID": "1993-036AJA", "EPOCH": "2025-12-06T06:11:48.969024", "MEAN_MOTION": 15.03269957, "ECCENTRICITY": 0.00683754, "INCLINATION": 73.9314, "RA_OF_ASC_NODE": 186.7627, "ARG_OF_PERICENTER": 85.1943, "MEAN_ANOMALY": 275.7048, "EPHEMERIS_TYPE": 0, "CLASSIFICATION_TYPE": "U", "NORAD_CAT_ID": 35071, "ELEMENT_SET_NO": 999, "REV_AT_EPOCH": 67439, "BSTAR": 0.0011992827, "MEAN_MOTION_DOT": 0.00017109, "MEAN_MOTION_DDOT": 0}, "tle": {"line1": "1 35071U 93036AJA 25340.25820566  .00017109  00000+0  11993-2 0  9997", "line2": "2 35071  73.9314 186.7627 0068375  85.1943 275.7048 15.03269957674390"}}, "geometry": {"type": "Point", "coordinates": [155.1457633180231, -52.98358375523769]}}, {"type": "Feature", "properties": {"norad_id": 35073, "name": "COSMOS 2251 DEB", "group": "cosmos-2251-debris", "lat": 67.08552073672504, "lon": 17.473561635257767, "alt_km": 551.37972867802, "timestamp": "2025-12-10T16:57:12.034879+00:00", "meta": {"OBJECT_NAME": "COSMOS 2251 DEB", "OBJECT_ID": "1993-036AJC", "EPOCH": "2025-12-06T06:59:58.933248", "MEAN_MOTION": 14.99991639, "ECCENTRICITY": 0.00102924, "INCLINATION": 74.0009, "RA_OF_ASC_NODE": 343.7168, "ARG_OF_PERICENTER": 84.8418, "MEAN_ANOMALY": 275.3943, "EPHEMERIS_TYPE": 0, "CLASSIFICATION_TYPE": "U", "NORAD_CAT_ID": 35073, "ELEMENT_SET_NO": 999, "REV_AT_EPOCH": 67382, "BSTAR": 0.0044204403, "MEAN_MOTION_DOT": 0.00055435, "MEAN_MOTION_DDOT": 0}, "tle": {"line1": "1 35073U 93036AJC 25340.29165432  .00055435  00000+0  44204-2 0  9992", "line2": "2 35073  74.0009 343.7168 0010292  84.8418 275.3943 14.99991639673828"}}, "geometry": {"type": "Point", "coordinates": [17.473561635257767, 67.08552073672504]}}, {"type": "Feature", "properties": {"norad_id": 35284, "name": "COSMOS 2251 DEB", "group": "cosmos-2251-debris", "lat": -68.17008801978228, "lon": 133.72687253165532, "alt_km": 770.9871415948282, "timestamp": "2025-12-10T16:57:12.034889+00:00", "meta": {"OBJECT_NAME": "COSMOS 2251 DEB", "OBJECT_ID": "1993-036AJN", "EPOCH": "2025-12-09T11:57:18.077760", "MEAN_MOTION": 14.38312674, "ECCENTRICITY": 0.00166524, "INCLINATION": 74.0492, "RA_OF_ASC_NODE": 270.3915, "ARG_OF_PERICENTER": 347.5267, "MEAN_ANOMALY": 133.7603, "EPHEMERIS_TYPE": 0, "CLASSIFICATION_TYPE": "U", "NORAD_CAT_ID": 35284, "ELEMENT_SET_NO": 999, "REV_AT_EPOCH": 65479, "BSTAR": 0.00032789073, "MEAN_MOTION_DOT": 9.73e-06, "MEAN_MOTION_DDOT": 0}, "tle": {"line1": "1 35284U 93036AJN 25343.49812590  .00000973  00000+0  32789-3 0  9998", "line2": "2 35284  74.0492 270.3915 0016652 347.5267 133.7603 14.38312674654794"}}, "geometry": {"type": "Point", "coordinates": [133.72687253165532, -68.17008801978228]}}]}